{
  "type": "FeatureCollection",
  "name": "accra_hospital_beds",
  "crs": { "type": "name", "properties": { "name": "urn:ogc:def:crs:OGC:1.3/CRS84" } },
  "features": [
    {
      "type": "Feature",
      "geometry": { "type": "Point", "coordinates": [-0.2264, 5.5359] },
      "properties": {
        "hospital_name": "Korle-Bu Teaching Hospital",
        "hospital_type": "Teaching",
        "region_area": "Korle-Bu",
        "address": "Guggisberg Ave, Korle-Bu, Accra",
        "main_phone": "+233 302 665401",
        "updater_phone": "",
        "emergency_beds": null,
        "icu_beds": null,
        "general_beds": null,
        "oxygen_available": null,
        "ambulance_available": null,
        "status": "unreported",
        "last_updated": null,
        "updated_by": null,
        "notes": "Identity verified from public directories. Bed figures awaiting first hospital report.",
        "marker-color": "#888780",
        "marker-size": "medium",
        "stroke": "#5F5E5A",
        "stroke-width": 1,
        "fill": "#888780",
        "fill-opacity": 0.7
      }
    },
    {
      "type": "Feature",
      "geometry": { "type": "Point", "coordinates": [-0.198676, 5.561618] },
      "properties": {
        "hospital_name": "Greater Accra Regional Hospital (Ridge)",
        "hospital_type": "Government",
        "region_area": "Ridge",
        "address": "Castle Rd, Ridge, Accra",
        "main_phone": "",
        "updater_phone": "",
        "emergency_beds": null,
        "icu_beds": null,
        "general_beds": null,
        "oxygen_available": null,
        "ambulance_available": null,
        "status": "unreported",
        "last_updated": null,
        "updated_by": null,
        "notes": "420-bed capacity per public records. Coordinates verified. Phone not found in public sources.",
        "marker-color": "#888780",
        "marker-size": "medium",
        "stroke": "#5F5E5A",
        "stroke-width": 1,
        "fill": "#888780",
        "fill-opacity": 0.7
      }
    },
    {
      "type": "Feature",
      "geometry": { "type": "Point", "coordinates": [-0.187, 5.65] },
      "properties": {
        "hospital_name": "University of Ghana Teaching Hospital",
        "hospital_type": "Teaching",
        "region_area": "Legon",
        "address": "University of Ghana Campus, Legon, Accra",
        "main_phone": "",
        "updater_phone": "",
        "emergency_beds": null,
        "icu_beds": null,
        "general_beds": null,
        "oxygen_available": null,
        "ambulance_available": null,
        "status": "unreported",
        "last_updated": null,
        "updated_by": null,
        "notes": "617-bed facility per public records. Coordinates approximate, verify before deployment.",
        "marker-color": "#888780",
        "marker-size": "medium",
        "stroke": "#5F5E5A",
        "stroke-width": 1,
        "fill": "#888780",
        "fill-opacity": 0.7
      }
    },
    {
      "type": "Feature",
      "geometry": { "type": "Point", "coordinates": [-0.1855, 5.581] },
      "properties": {
        "hospital_name": "37 Military Hospital",
        "hospital_type": "Government",
        "region_area": "Cantonments",
        "address": "Liberation Road, Accra",
        "main_phone": "",
        "updater_phone": "",
        "emergency_beds": null,
        "icu_beds": null,
        "general_beds": null,
        "oxygen_available": null,
        "ambulance_available": null,
        "status": "unreported",
        "last_updated": null,
        "updated_by": null,
        "notes": "Coordinates approximate, verify before deployment. Phone not found in public sources.",
        "marker-color": "#888780",
        "marker-size": "medium",
        "stroke": "#5F5E5A",
        "stroke-width": 1,
        "fill": "#888780",
        "fill-opacity": 0.7
      }
    },
    {
      "type": "Feature",
      "geometry": { "type": "Point", "coordinates": [-0.1665, 5.5554] },
      "properties": {
        "hospital_name": "La General Hospital",
        "hospital_type": "Government",
        "region_area": "La",
        "address": "La, Accra",
        "main_phone": "",
        "updater_phone": "",
        "emergency_beds": null,
        "icu_beds": null,
        "general_beds": null,
        "oxygen_available": null,
        "ambulance_available": null,
        "status": "unreported",
        "last_updated": null,
        "updated_by": null,
        "notes": "Formerly La Polyclinic. Coordinates verified from public reference.",
        "marker-color": "#888780",
        "marker-size": "medium",
        "stroke": "#5F5E5A",
        "stroke-width": 1,
        "fill": "#888780",
        "fill-opacity": 0.7
      }
    },
    {
      "type": "Feature",
      "geometry": { "type": "Point", "coordinates": [-0.165, 5.605] },
      "properties": {
        "hospital_name": "Lister Hospital",
        "hospital_type": "Private",
        "region_area": "East Airport",
        "address": "Nii Martey Tsuru St, East Airport, off Spintex Road, Accra",
        "main_phone": "+233 303 409030",
        "updater_phone": "",
        "emergency_beds": null,
        "icu_beds": null,
        "general_beds": null,
        "oxygen_available": null,
        "ambulance_available": null,
        "status": "unreported",
        "last_updated": null,
        "updated_by": null,
        "notes": "Coordinates approximate, verify before deployment.",
        "marker-color": "#888780",
        "marker-size": "medium",
        "stroke": "#5F5E5A",
        "stroke-width": 1,
        "fill": "#888780",
        "fill-opacity": 0.7
      }
    },
    {
      "type": "Feature",
      "geometry": { "type": "Point", "coordinates": [-0.177, 5.604] },
      "properties": {
        "hospital_name": "Nyaho Medical Centre",
        "hospital_type": "Private",
        "region_area": "Airport Residential Area",
        "address": "35 Aviation Rd, Airport Residential Area, Accra",
        "main_phone": "+233 302 775341",
        "updater_phone": "",
        "emergency_beds": null,
        "icu_beds": null,
        "general_beds": null,
        "oxygen_available": null,
        "ambulance_available": null,
        "status": "unreported",
        "last_updated": null,
        "updated_by": null,
        "notes": "Coordinates approximate, verify before deployment.",
        "marker-color": "#888780",
        "marker-size": "medium",
        "stroke": "#5F5E5A",
        "stroke-width": 1,
        "fill": "#888780",
        "fill-opacity": 0.7
      }
    },
    {
      "type": "Feature",
      "geometry": { "type": "Point", "coordinates": [-0.183, 5.556] },
      "properties": {
        "hospital_name": "Trust Hospital (Osu Main)",
        "hospital_type": "Private",
        "region_area": "Osu",
        "address": "Osu Main, Accra",
        "main_phone": "+233 302 761974",
        "updater_phone": "",
        "emergency_beds": null,
        "icu_beds": null,
        "general_beds": null,
        "oxygen_available": null,
        "ambulance_available": null,
        "status": "unreported",
        "last_updated": null,
        "updated_by": null,
        "notes": "Coordinates approximate, verify before deployment.",
        "marker-color": "#888780",
        "marker-size": "medium",
        "stroke": "#5F5E5A",
        "stroke-width": 1,
        "fill": "#888780",
        "fill-opacity": 0.7
      }
    }
  ]
}
